CENTISPACE-1 S6         
1 54021U 22126B   25334.61324886  .00001068  00000+0  24903-3 0  9995
2 54021  54.9998 288.3135 0013969 353.9956   6.0868 14.61882064167952
OTB-3-GAZELLE           
1 54023U 22127A   25334.55785861  .00000187  00000+0  69383-4 0  9998
2 54023  98.3815 324.4570 0014294  69.7462 290.5263 14.42599125165729
ASO-S                   
1 54029U 22129A   25334.58461317  .00000255  00000+0  74180-4 0  9993
2 54029  98.2751 337.5394 0014093 347.8956  12.1898 14.51946552166607
HJ-2E                   
1 54035U 22132A   25334.62823922  .00011759  00000+0  51562-3 0  9992
2 54035  97.3820 337.7727 0013418 359.6482   0.4742 15.22052537174223
COSMOS 2561             
1 54109U 22137A   25333.86202722  .00013488  00000+0  27854-3 0  9991
2 54109  96.9513  35.7121 0011769  46.7562 313.4668 15.45879212175498
GONETS-M 23             
1 54150U 22139A   25334.67563149  .00000052  00000+0  30187-3 0  9998
2 54150  82.5040 111.6626 0020493 294.3324  65.5616 12.42861356140983
GONETS-M 24             
1 54151U 22139B   25334.64822884  .00000032  00000+0  15835-3 0  9991
2 54151  82.4958 110.8744 0015694 304.9720  54.9885 12.42859589140983
GONETS-M 25             
1 54152U 22139C   25334.63458153  .00000035  00000+0  18489-3 0  9996
2 54152  82.5023 111.4628 0019597 303.4945  56.4261 12.42858512140985
SKIF-D                  
1 54153U 22139D   25321.20680953  .00000008  00000+0  00000+0 0  9997
2 54153  89.9641  96.7296 0006189 258.2497 101.7163  5.00431895 53504
MATS                    
1 54227U 22147A   25334.60139823  .00003949  00000+0  29193-3 0  9996
2 54227  97.6799 332.3436 0013762 146.5894 213.6203 15.03714398167900
JILIN-1 GAOFEN 03D54    
1 54254U 22155D   25334.62729999  .00049679  00000+0  78866-3 0  9997
2 54254  97.6017 105.4181 0004267 358.9982   1.1261 15.53198598169141
EOS-6 (OCEANSAT-3)      
1 54361U 22158A   25334.63588196  .00000399  00000+0  12161-3 0  9994
2 54361  98.3553  70.5152 0001002 155.5543 204.5697 14.47014960159122
DONGPO 09               
1 54685U 22167D   25334.68517466  .00014258  00000+0  48374-3 0  9994
2 54685  97.6722 132.8473 0004039 104.0483 256.1206 15.30630428165025
DONGPO 08               
1 54686U 22167E   25334.67993398  .00013331  00000+0  48248-3 0  9997
2 54686  97.6677 130.8855 0009820 143.8361 216.3544 15.28498466164940
2022-167F               
1 54687U 22167F   25334.66370961  .00045830  00000+0  67320-3 0  9993
2 54687  97.6206 139.9478 0003730  56.9226 303.2385 15.55360249165686
DONGPO 10               
1 54689U 22167H   25334.65202020  .00014002  00000+0  49617-3 0  9990
2 54689  97.6761 132.3521 0006636  97.2925 262.9069 15.29205280164966
JILIN-1 GAOFEN 03D48    
1 54695U 22167P   25334.66980973  .00014062  00000+0  49000-3 0  9990
2 54695  97.6692 131.7239 0008145 101.8081 258.4073 15.29742711164989
STAR VIBE               
1 55009U 23001A   25334.61902310  .00015936  00000+0  45141-3 0  9995
2 55009  97.3485  33.8320 0008030 107.2903 252.9221 15.36321135161673
BRO-8                   
1 55011U 23001C   25334.61423117  .00026107  00000+0  72058-3 0  9990
2 55011  97.3546  33.3710 0008686 116.8715 243.3418 15.37022866161588
CONNECTA T1.2           
1 55012U 23001D   25334.43719153  .00016656  00000+0  42112-3 0  9995
2 55012  97.3581  38.0555 0009039  98.6723 261.5547 15.39817311161861
BIRKELAND               
1 55015U 23001G   25334.65371972  .00010620  00000+0  30675-3 0  9991
2 55015  97.3627  37.4190 0009013  99.4027 260.8236 15.35800369161836
ION SCV-008             
1 55051U 23001AU  25334.50216767  .00008052  00000+0  32088-3 0  9991
2 55051  97.5784  62.9355 0015741 357.5186   2.5971 15.25377777161015
ION SCV-007             
1 55060U 23001BD  25334.62626179  .00000608  00000+0  92806-4 0  9990
2 55060  97.9299  36.3176 0011077 255.9060 104.0920 14.77294327156938
HUYGENS                 
1 55093U 23001CN  25334.65379148  .00012043  00000+0  34716-3 0  9991
2 55093  97.3544  36.8901 0011998  80.7875 279.4725 15.35799356161856
SHARJAHSAT-1            
1 55104U 23001CZ  25334.61812774  .00018984  00000+0  46551-3 0  9997
2 55104  97.3493  36.4799 0008265 102.5259 257.6913 15.40728865161833
2023-003A               
1 55133U 23003A   25331.85255858  .00549382  11915-3  17533-2 0  9997
2 55133  97.1505  46.8504 0006961 315.8304  44.2414 15.91045058161341
HORUS 1                 
1 55690U 23025A   25334.65618155  .00007790  00000+0  32962-3 0  9998
2 55690  97.3696  48.1853 0003051 134.7896 225.3589 15.23459716153829
HORUS 2                 
1 55844U 23032A   25334.62454975  .00008762  00000+0  37055-3 0  9990
2 55844  97.3762  48.7828 0002688  99.7708 260.3832 15.23442960151257
GLOBAL-19               
1 55982U 23041B   25334.56388737  .00019615  00000+0  51682-3 0  9999
2 55982  42.0034 280.7321 0002010 311.4042  48.6625 15.38104398151331
BRO-9                   
1 56185U 23054H   25334.64582422  .00035572  00000+0  48131-3 0  9990
2 56185  97.3109 239.3301 0006298  55.4988 304.6862 15.57622418147935
ION SCV-010             
1 56192U 23054Q   25334.62271386  .00006573  00000+0  27543-3 0  9993
2 56192  97.4004 221.6369 0013324 177.1870 182.9445 15.23780097145939
GHOST-1                 
1 56195U 23054T   25334.25224031  .00060576  00000+0  63062-3 0  9999
2 56195  97.3103 241.4473 0007200  50.6813 309.5084 15.64357490148026
GHOST-2                 
1 56197U 23054V   25334.51515069  .00471817  99447-4  88759-3 0  9996
2 56197  97.3050 249.3016 0005420  83.2086 276.9810 16.00854809148565
TELEOS-2                
1 56310U 23057C   25333.26889677  .00004162  00000+0  29816-3 0  9992
2 56310   9.9875 219.8343 0000780 269.1502  90.8622 14.96410731142803
SNIPE 4                 
1 56744U 23072B   25334.59277838  .00021502  00000+0  66609-3 0  9995
2 56744  97.5384 170.3520 0005995 329.8657  30.2240 15.33452214139587
SNIPE 2                 
1 56745U 23072C   25334.63165780  .00024503  00000+0  69955-3 0  9994
2 56745  97.5400 172.3449 0005985   4.0505 356.0786 15.36003518139656
2023-072G               
1 56749U 23072G   25334.59719500  .00025936  00000+0  67444-3 0  9990
2 56749  97.5057 171.0296 0005016 357.7297   2.3924 15.38896793139804
OTTER PUP               
1 56933U 23084B   25334.19740616  .00069374  00000+0  81407-3 0  9995
2 56933  97.5802 116.7561 0003409 240.0008 120.0911 15.61262627137885
GEISAT PRECURSOR        
1 56934U 23084C   25334.58727587  .00008637  00000+0  29057-3 0  9999
2 56934  97.5964 104.8912 0005351 337.8657  22.2352 15.31036051137100
AFRL-XVI                
1 56942U 23084L   25334.37641743  .00208150  17800-4  72323-3 0  9991
2 56942  97.5716 126.8485 0003228 273.0152  87.0750 15.89408103138527
BLACKJACK ACES-3        
1 56950U 23084U   25334.20428368  .00009486  00000+0  42480-3 0  9999
2 56950  97.5950 102.8361 0007381 323.3768  36.6961 15.21460421136944
BLACKJACK ACES-4        
1 56952U 23084W   25334.44320377  .00135229  00000+0  80891-3 0  9991
2 56952  97.5800 121.6493 0005711 249.3942 110.6711 15.77440066138189
BLACKJACK ACES-2        
1 56955U 23084Z   25334.33776187  .00007329  00000+0  33501-3 0  9991
2 56955  97.5955 103.0670 0007175 315.0690  44.9964 15.20840748136974
BLACKJACK ACES-1        
1 56956U 23084AA  25334.59811892  .00014149  00000+0  60132-3 0  9991
2 56956  97.5925 103.1228 0005846 317.1183  42.9597 15.23145893 86735
ION SCV-011             
1 56957U 23084AB  25334.46603424  .00007811  00000+0  30540-3 0  9996
2 56957  98.1267 138.7941 0007915  16.4614 343.6878 15.26146538135474
GHOST-3                 
1 56958U 23084AC  25334.33701324  .00020675  00000+0  52343-3 0  9999
2 56958  97.5964 108.7897 0006975 293.6693  66.3820 15.39754428137330
TOMORROW-R2             
1 56962U 23084AG  25334.43247643  .00053930  00000+0  75367-3 0  9995
2 56962  97.5861 115.3495 0005599 260.7213  99.3408 15.56669301137784
AFR-1                   
1 56964U 23084AJ  25334.60666985  .00005973  00000+0  23407-3 0  9992
2 56964  97.6009 102.2281 0010150 323.8423  36.2128 15.26128172136918
DROID.001               
1 56965U 23084AK  25334.64452168  .00099609  00000+0  89839-3 0  9993
2 56965  97.5832 118.3030 0005179 247.8329 112.2382 15.67833268138000
METEOR-M2 3             
1 57166U 23091A   25334.60621958  .00000016  00000+0  25825-4 0  9996
2 57166  98.6395  28.3565 0004535  40.9971 319.1549 14.24023706126250
STRATOSAT-TK 1 (RS52S)  
1 57167U 23091B   25334.64224742  .00209074  00000+0  17165-2 0  9992
2 57167  97.5248  46.1241 0003188  11.9224 348.2113 15.69809140134979
UMKA 1 (RS40S)          
1 57172U 23091G   25334.61362271  .00007260  00000+0  36019-3 0  9998
2 57172  97.5366  29.1319 0015191  91.6426 268.6548 15.17913599133859
2023-091H               
1 57173U 23091H   25334.59442208  .00013081  00000+0  55020-3 0  9996
2 57173  97.5359  31.5781 0012422  92.7121 267.5538 15.23458975134015
2023-091J               
1 57174U 23091J   25334.60054478  .00004431  00000+0  26016-3 0  9999
2 57174  97.5374  25.4207 0015328 110.8294 249.4579 15.12138836133606
CUBEBEL 2 (EU11S)       
1 57175U 23091K   25334.57244899  .00015319  00000+0  64230-3 0  9991
2 57175  97.5364  31.4715 0012441  94.7104 265.5554 15.23528081134004
SITRO-AIS 5 (KATYS)     
1 57176U 23091L   25334.63708847  .00013914  00000+0  57474-3 0  9998
2 57176  97.5370  32.0881 0014164  83.3349 276.9500 15.24033395134043
ZORKIY-2M 1             
1 57177U 23091M   25334.58884147  .00008591  00000+0  42890-3 0  9992
2 57177  97.5406  29.2952 0015746  88.7554 271.5483 15.17632928133842
CUBESX-HSE 3 (RS42S)    
1 57178U 23091N   25334.61107010  .00014395  00000+0  57268-3 0  9998
2 57178  97.5398  33.2085 0013562  75.9877 284.2867 15.25296416134097
MONITOR-3 (RS58S)       
1 57180U 23091Q   25334.59308791  .00012206  00000+0  52030-3 0  9998
2 57180  97.5392  31.9351 0014360  79.6792 280.6062 15.23000723134010
